NORAD_CAT_ID,OBJECT_NAME,OBJECT_TYPE,EPOCH,MEAN_MOTION,ECCENTRICITY,INCLINATION,RA_OF_ASC_NODE,ARG_OF_PERICENTER,MEAN_ANOMALY,BSTAR,MEAN_MOTION_DOT,MEAN_MOTION_DDOT,TLE_LINE0,TLE_LINE1,TLE_LINE2,SEMIMAJOR_AXIS,PERIOD,APOGEE,PERIGEE,DECAYED
51857.0,STARLINK-3571,PAYLOAD,2022-10-29 19:16:35,15.08838405,0.000153,53.2169,126.8259,69.4207,290.6949,-9.6551e-05,-1.824e-05,0.0,0 STARLINK-3571,1 51857U 22022F   22302.80318457 -.00001824  00000-0 -96551-4 0  9996,2 51857  53.2169 126.8259 0001530  69.4207 290.6949 15.08838405 37803,6917.885,95.438,540.809,538.692,0.0
51857.0,STARLINK-3571,PAYLOAD,2022-10-30 04:48:54,15.08832504,0.0001382,53.2173,125.0425,64.8546,295.2589,-0.00020213,-3.503e-05,0.0,0 STARLINK-3571,1 51857U 22022F   22303.20063108 -.00003503  00000-0 -20213-3 0  9998,2 51857  53.2173 125.0425 0001382  64.8546 295.2589 15.08832504 37865,6917.903,95.438,540.724,538.812,0.0
51857.0,STARLINK-3571,PAYLOAD,2022-10-30 19:07:22,15.08830444,0.000162,53.2168,122.366,67.9615,292.1549,-0.00015743,-2.792e-05,0.0,0 STARLINK-3571,1 51857U 22022F   22303.79678996 -.00002792  00000-0 -15743-3 0  9990,2 51857  53.2168 122.3660 0001620  67.9615 292.1549 15.08830444 37959,6917.91,95.438,540.895,538.654,0.0
51857.0,STARLINK-3571,PAYLOAD,2022-10-31 07:50:27,15.08835812,0.0001437,53.2163,119.9858,70.32,289.7947,-0.00012921,-2.344e-05,0.0,0 STARLINK-3571,1 51857U 22022F   22304.32670670 -.00002344  00000-0 -12921-3 0  9999,2 51857  53.2163 119.9858 0001437  70.3200 289.7947 15.08835812 38037,6917.893,95.438,540.752,538.764,0.0
51857.0,STARLINK-3571,PAYLOAD,2022-10-31 18:58:16,15.08600222,0.0003258,53.217,117.9056,101.9165,258.2192,0.003338,0.00052889,0.0,0 STARLINK-3571,1 51857U 22022F   22304.79047197  .00052889  00000-0  33380-2 0  9990,2 51857  53.2170 117.9056 0003258 101.9165 258.2192 15.08600222 38103,6918.613,95.453,542.732,538.224,0.0
51857.0,STARLINK-3571,PAYLOAD,2022-11-01 02:55:05,15.08826748,0.000145,53.217,116.4181,67.9171,292.1975,0.0002356999999999,3.464e-05,0.0,0 STARLINK-3571,1 51857U 22022F   22305.12158905  .00003464  00000-0  23570-3 0  9994,2 51857  53.2170 116.4181 0001450  67.9171 292.1975 15.08826748 38150,6917.920999999999,95.438,540.789,538.783,0.0
51857.0,STARLINK-3571,PAYLOAD,2022-11-01 06:05:51,15.08828985,0.0001443,53.217,115.8234,68.3551,291.7594,0.00026146,3.874e-05,0.0,0 STARLINK-3571,1 51857U 22022F   22305.25407025  .00003874  00000-0  26146-3 0  9995,2 51857  53.2170 115.8234 0001443  68.3551 291.7594 15.08828985 38170,6917.9140000000025,95.438,540.7769999999998,538.781,0.0
51857.0,STARLINK-3571,PAYLOAD,2022-11-01 14:02:47,15.08837846,0.000148,53.2163,114.3366,68.4353,291.6797,0.00032007,4.809e-05,0.0,0 STARLINK-3571,1 51857U 22022F   22305.58527084  .00004809  00000-0  32007-3 0  9991,2 51857  53.2163 114.3366 0001480  68.4353 291.6797 15.08837846 38220,6917.887,95.438,540.776,538.7280000000002,0.0
51857.0,STARLINK-3571,PAYLOAD,2022-11-02 10:42:47,15.08847589,0.0001492,53.2164,110.471,68.6269,291.4882,0.00026422,3.92e-05,0.0,0 STARLINK-3571,1 51857U 22022F   22306.44638673  .00003920  00000-0  26422-3 0  9991,2 51857  53.2164 110.4710 0001492  68.6269 291.4882 15.08847589 38354,6917.857,95.437,540.754,538.69,0.0
51857.0,STARLINK-3571,PAYLOAD,2022-11-02 17:04:20,15.08841428,0.0001483,53.2164,109.2814,68.2053,291.9096,0.00015813,2.23e-05,0.0,0 STARLINK-3571,1 51857U 22022F   22306.71135059  .00002230  00000-0  15813-3 0  9996,2 51857  53.2164 109.2814 0001483  68.2053 291.9096 15.08841428 38394,6917.876,95.437,540.7669999999998,538.715,0.0
51857.0,STARLINK-3571,PAYLOAD,2022-11-03 10:33:35,15.08838313,0.0001543,53.2163,106.0104,68.4401,291.6755,2.9857e-05,1.87e-06,0.0,0 STARLINK-3571,1 51857U 22022F   22307.43999420  .00000187  00000-0  29857-4 0  9999,2 51857  53.2163 106.0104 0001543  68.4401 291.6755 15.08838313 38507,6917.886,95.438,540.818,538.683,0.0
51857.0,STARLINK-3571,PAYLOAD,2022-11-03 12:08:58,15.08839315,0.0001543,53.2164,105.713,69.0337,291.0821,4.3745e-05,4.08e-06,0.0,0 STARLINK-3571,1 51857U 22022F   22307.50623373  .00000408  00000-0  43745-4 0  9996,2 51857  53.2164 105.7130 0001543  69.0337 291.0821 15.08839315 38510,6917.882,95.438,540.815,538.68,0.0
51857.0,STARLINK-3571,PAYLOAD,2022-11-03 13:44:21,15.08841546,0.0001525,53.2172,105.4155,69.8883,290.2273,6.1116e-05,6.85e-06,0.0,0 STARLINK-3571,1 51857U 22022F   22307.57247440  .00000685  00000-0  61116-4 0  9999,2 51857  53.2172 105.4155 0001525  69.8883 290.2273 15.08841546 38529,6917.876,95.437,540.7959999999998,538.686,0.0
51857.0,STARLINK-3571,PAYLOAD,2022-11-04 04:02:48,15.08851657,0.000154,53.2171,102.7385,77.0587,283.0577,0.00020275,2.941e-05,0.0,0 STARLINK-3571,1 51857U 22022F   22308.16862232  .00002941  00000-0  20275-3 0  9994,2 51857  53.2171 102.7385 0001540  77.0587 283.0577 15.08851657 38613,6917.845,95.437,540.775,538.644,0.0
51857.0,STARLINK-3571,PAYLOAD,2022-11-04 08:48:59,15.08844583,0.0001651,53.2161,101.8465,68.3835,291.7333,0.00020534,2.982e-05,0.0,0 STARLINK-3571,1 51857U 22022F   22308.36735027  .00002982  00000-0  20534-3 0  9990,2 51857  53.2161 101.8465 0001651  68.3835 291.7333 15.08844583 38642,6917.866,95.437,540.874,538.589,0.0
51857.0,STARLINK-3571,PAYLOAD,2022-11-04 11:59:45,15.088459900000002,0.000166,53.2158,101.2521,70.4112,289.7059,0.00025017,3.696e-05,0.0,0 STARLINK-3571,1 51857U 22022F   22308.49983004  .00003696  00000-0  25017-3 0  9998,2 51857  53.2158 101.2521 0001660  70.4112 289.7059 15.08845990 38664,6917.861999999999,95.437,540.875,538.5790000000002,0.0
51857.0,STARLINK-3571,PAYLOAD,2022-11-04 13:35:08,15.08847846,0.0001669,53.216,100.9553,65.964,294.1527,0.00028492,4.25e-05,0.0,0 STARLINK-3571,1 51857U 22022F   22308.56606971  .00004250  00000-0  28492-3 0  9998,2 51857  53.2160 100.9553 0001669  65.9640 294.1527 15.08847846 38675,6917.856,95.437,540.876,538.567,0.0
51857.0,STARLINK-3571,PAYLOAD,2022-11-05 10:15:09,15.08845259,0.0001706,53.2162,97.089,68.5534,291.564,0.00012655,1.727e-05,0.0,0 STARLINK-3571,1 51857U 22022F   22309.42718897  .00001727  00000-0  12655-3 0  9995,2 51857  53.2162  97.0890 0001706  68.5534 291.5640 15.08845259 38808,6917.864000000001,95.437,540.91,538.549,0.0
51857.0,STARLINK-3571,PAYLOAD,2022-11-05 11:50:32,15.0883653,0.0001450999999999,53.2165,96.7899,80.4346,279.681,-7.1639e-05,-1.428e-05,0.0,0 STARLINK-3571,1 51857U 22022F   22309.49342857 -.00001428  00000-0 -71639-4 0  9999,2 51857  53.2165  96.7899 0001451  80.4346 279.6810 15.08836530 38816,6917.891,95.438,540.76,538.752,0.0
51857.0,STARLINK-3571,PAYLOAD,2022-11-05 16:36:41,15.08836571,0.0001686999999999,53.2162,95.8987,71.8774,288.2401,-4.7555e-05,-1.045e-05,0.0,0 STARLINK-3571,1 51857U 22022F   22309.69215202 -.00001045  00000-0 -47555-4 0  9999,2 51857  53.2162  95.8987 0001687  71.8774 288.2401 15.08836571 38841,6917.891,95.438,540.923,538.589,0.0
51857.0,STARLINK-3571,PAYLOAD,2022-11-06 11:41:20,15.08837987,0.000154,53.2179,92.3312,70.9938,289.1221,-0.00015418,-2.741e-05,0.0,0 STARLINK-3571,1 51857U 22022F   22310.48704146 -.00002741  00000-0 -15418-3 0  9994,2 51857  53.2179  92.3312 0001540  70.9938 289.1221 15.08837987 38968,6917.887,95.438,540.817,538.686,0.0
51857.0,STARLINK-3571,PAYLOAD,2022-11-07 01:59:49,15.0882116,0.0001558,53.2179,89.6552,69.3948,290.7211,7.2473e-05,8.65e-06,0.0,0 STARLINK-3571,1 51857U 22022F   22311.08320719  .00000865  00000-0  72473-4 0  9999,2 51857  53.2179  89.6552 0001558  69.3948 290.7211 15.08821160 39059,6917.938,95.439,540.881,538.725,0.0
51857.0,STARLINK-3571,PAYLOAD,2022-11-07 13:07:30,15.08828411,0.0001534,53.2182,87.5744,61.3033,298.8114,9.422e-05,1.211e-05,0.0,0 STARLINK-3571,1 51857U 22022F   22311.54688478  .00001211  00000-0  94220-4 0  9999,2 51857  53.2182  87.5744 0001534  61.3033 298.8114 15.08828411 39129,6917.916,95.438,540.842,538.72,0.0
51857.0,STARLINK-3571,PAYLOAD,2022-11-08 06:36:44,15.08845685,0.0001555,53.2182,84.3026,55.6936,304.4203,0.00021181,3.085e-05,0.0,0 STARLINK-3571,1 51857U 22022F   22312.27551269  .00003085  00000-0  21181-3 0  9993,2 51857  53.2182  84.3026 0001555  55.6936 304.4203 15.08845685 39235,6917.863,95.437,540.804,538.6519999999998,0.0
51857.0,STARLINK-3571,PAYLOAD,2022-11-08 09:47:31,15.08833252,0.0001865,53.2182,83.708,46.9607,313.1541,0.0001072,1.418e-05,0.0,0 STARLINK-3571,1 51857U 22022F   22312.40800433  .00001418  00000-0  10720-3 0  9993,2 51857  53.2182  83.7080 0001865  46.9607 313.1541 15.08833252 39251,6917.901,95.438,541.056,538.476,0.0
51857.0,STARLINK-3571,PAYLOAD,2022-11-08 17:44:27,15.08836084,0.0001464,53.2175,82.2209,56.6093,303.5039,2.0082e-05,3.2e-07,0.0,0 STARLINK-3571,1 51857U 22022F   22312.73920140  .00000032  00000-0  20082-4 0  9991,2 51857  53.2175  82.2209 0001464  56.6093 303.5039 15.08836084 39309,6917.892,95.438,540.77,538.745,0.0
51857.0,STARLINK-3571,PAYLOAD,2022-11-09 14:24:27,15.08843186,0.0001564,53.2178,78.3568,49.1436,310.9692,-8.839600000000001e-06,-4.29e-06,0.0,0 STARLINK-3571,1 51857U 22022F   22313.60031566 -.00000429  00000-0 -88396-5 0  9998,2 51857  53.2178  78.3568 0001564  49.1436 310.9692 15.08843186 39437,6917.871,95.437,540.818,538.654,0.0
51857.0,STARLINK-3571,PAYLOAD,2022-11-10 11:04:29,15.08837636,0.0001648,53.2184,74.4907,46.8701,313.2429,-0.0001403,-2.52e-05,0.0,0 STARLINK-3571,1 51857U 22022F   22314.46144804 -.00002520  00000-0 -14030-3 0  9999,2 51857  53.2184  74.4907 0001648  46.8701 313.2429 15.08837636 39561,6917.888000000001,95.438,540.893,538.613,0.0
51857.0,STARLINK-3571,PAYLOAD,2022-11-10 17:26:01,15.0883715,0.0001412,53.2185,73.3013,64.9714,295.1424,-6.262e-05,-1.284e-05,0.0,0 STARLINK-3571,1 51857U 22022F   22314.72640598 -.00001284  00000-0 -62620-4 0  9994,2 51857  53.2185  73.3013 0001412  64.9714 295.1424 15.08837150 39601,6917.889,95.438,540.731,538.7769999999998,0.0
